[Satellite]
VERSION=1.1
NAME=Prox-1
NICKNAME=Prox-1
TLE1=1 44339U 19036A   22335.81776938  .00003129  00000-0  64610-3 0  9991
TLE2=2 44339  23.9996 216.0779 0010508 250.8319 109.1036 14.56238839182760
STATUS=0
